Name,Service Area,City,State,Zipcode,Street Number,Route,Suite/Apt #,Website,Region,Rep,Phone Number,Email,Locations,Materials,Mound Clays,Blocks,ProSlide Top Dressing,ProSlide Top Dressing,Infield Mix & Amendments
Batavia Turf,Western New York,Elba,NY,14058,6465,Transit Rd.,,www.bataviaturf.com,Northeast,Chuck Hoover,585-261-6370,chuck@bataviaturf.com,www.bataviaturf.com,Packaged Products,DPMC Premium; DPMC Pro; Black Stick,ProLoc Mound Blocks, 6x30 Pro Red; 6x30 Pro Brown, 6x30 Pro Red; 6x30 Pro Brown,DE Classic; DE Collegiate; DE Pro
Belair Road Supply,Southern Delaware,Frankford,DE,19945,6,Hickory St.,,www.belairroadsupply.com,Mid-Atlantic,Tony DiBuo,302-542-4649,brstony@yahoo.com,www.belairroadsupply.com,Packaged Products,DPMC Premium; DPMC Pro; Black Stick,ProLoc Mound Blocks,6x30 Pro Red; 6x30 Pro Brown ,6x30 Pro Red; 6x30 Pro Brown ,DE Classic; DE Collegiate; DE Pro
Synatek Solutions,North Philadelphia NY CT,Souderton,PA,18964,737,Hagey Center Dr.,2404,www.synateksolutions.com,Mid-Atlantic,Bruce Landis,888-408-5433,blandis@synateksolutions.com,www.synateksolutions.com,Packaged Products,DPMC Premium; DPMC Pro; Black Stick,ProLoc Mound Blocks, 6x30 Pro Red; 6x30 Pro Brown, 6x30 Pro Red; 6x30 Pro Brown,DE Classic; DE Collegiate; DE Pro
Target-Specialty Products,Eastern Pennsylvania,Reading,PA,19605,710,Corporate Center Dr.,,www.target-specialty.com,Mid-Atlantic,Alfie Gardiner,610-416-5828,alfie.gardiner@target-specialty.com,www.target-specialty.com,Packaged Products,DPMC Premium; DPMC Pro; Black Stick,ProLoc Mound Blocks, 6x30 Pro Red; 6x30 Pro Brown, 6x30 Pro Red; 6x30 Pro Brown,DE Classic; DE Collegiate; DE Pro
Target-Specialty Products,Northeast ,West Deptford,NJ,08066,1707,Imperial Way,,www.target-specialty.com,Mid-Atlantic,Alfie Gardiner,610-416-5828,alfie.gardiner@target-specialty.com,www.target-specialty.com,Packaged Products,DPMC Premium; DPMC Pro; Black Stick,ProLoc Mound Blocks, 6x30 Pro Red; 6x30 Pro Brown, 6x30 Pro Red; 6x30 Pro Brown,DE Classic; DE Collegiate; DE Pro
Genesis Green Supply,Mid-Atlantic,Glen Rock,PA,17327,137,Commerce Dr.,,www.genesisturfgrass.com,Mid-Atlantic,Todd Cowing,717-759-8151,todd@genesisgreensupply.com,www.genesisturfgrass.com,Packaged Products,DPMC Premium; DPMC Pro; Black Stick,ProLoc Mound Blocks,6x30 Pro Red; 6x30 Pro Brown ,6x30 Pro Red; 6x30 Pro Brown ,DE Classic; DE Collegiate; DE Pro
Anderson Outdoor,Illinois,Paxton,IL,60957,100,W. Hunt St.,,www.andersonssportsturf.com,Midwest,Jeff Anderson,217-249-3793,anderson.jeffreyalan@gmail.com,www.andersonssportsturf.com,Packaged Products,DPMC Premium; DPMC Pro; Black Stick,ProLoc Mound Blocks,6x30 Pro Red; 6x30 Pro Brown ,6x30 Pro Red; 6x30 Pro Brown ,DE Classic; DE Collegiate; DE Pro
Automatic Supply,Indiana,Fishers,IN,46038,116,Shadowlawn Dr.,,www.asksutomatic.com,Midwest,Paul Thoma,317-650-7785,pthoma@askautomatic.com ,www.askautomatic.com,Packaged Products,DPMC Premium; DPMC Pro; Black Stick,ProLoc Mound Blocks,6x30 Pro Red; 6x30 Pro Brown ,6x30 Pro Red; 6x30 Pro Brown ,DE Classic; DE Collegiate; DE Pro
Automatic Supply,Indiana,Fort Wayne,IN,46808,2204,Research Dr.,,www.asksutomatic.com,Midwest,Blake Sievers,260-415-0910,bsievers@askautomatic.com ,www.askautomatic.com,Packaged Products,DPMC Premium; DPMC Pro; Black Stick,ProLoc Mound Blocks,6x30 Pro Red; 6x30 Pro Brown ,6x30 Pro Red; 6x30 Pro Brown ,DE Classic; DE Collegiate; DE Pro
Automatic Supply,Indiana,Indianapolis,IN,46268,5232,W. 79th St.,,www.asksutomatic.com,Midwest,Kurt Cloe,317-409-6101,kclore@askautomatic.com ,www.askautomatic.com,Packaged Products,DPMC Premium; DPMC Pro; Black Stick,ProLoc Mound Blocks,6x30 Pro Red; 6x30 Pro Brown ,6x30 Pro Red; 6x30 Pro Brown ,DE Classic; DE Collegiate; DE Pro
Automatic Supply,Indiana,Greenwood,IN,46143,647,Sayre Ct. A,,www.asksutomatic.com,Midwest,Matt Alexander,317-697-5356,malexander@askautomatic.com,www.askautomatic.com,Packaged Products,DPMC Premium; DPMC Pro; Black Stick,ProLoc Mound Blocks,6x30 Pro Red; 6x30 Pro Brown ,6x30 Pro Red; 6x30 Pro Brown ,DE Classic; DE Collegiate; DE Pro
Automatic Supply,Indiana,Newburgh,IN,47630,7322,Peachwood Dr.,,www.asksutomatic.com,Midwest,Karl Proctor,812-217-1172,karl.proctor@askautomatic.com,www.askautomatic.com,Packaged Products,DPMC Premium; DPMC Pro; Black Stick,ProLoc Mound Blocks,6x30 Pro Red; 6x30 Pro Brown ,6x30 Pro Red; 6x30 Pro Brown ,DE Classic; DE Collegiate; DE Pro
Beacon Athletics,Wisconsin,Middleton,WI,53562,8233,Forsythia St.,Suite #120,beaconathletics.com,Midwest,Paul Zwaska,800-747-5985,pzwaska@beaconathletics.com,beaconathletics.com,Packaged Products,DPMC Premium; DPMC Pro; Black Stick,ProLoc Mound Blocks,6x30 Pro Red; 6x30 Pro Brown ,6x30 Pro Red; 6x30 Pro Brown ,DE Classic; DE Collegiate; DE Pro
Pioneer Athletics,Ohio,Cleveland,OH,44135,4529,Industrial Parkway,,www.pioneerathletics.com,Midwest,Jim Cook,800-877-1500,jcook@pioneerathletics.com,www.pioneerathletics.com,Packaged Products,DPMC Premium; DPMC Pro; Black Stick,ProLoc Mound Blocks,6x30 Pro Red; 6x30 Pro Brown ,6x30 Pro Red; 6x30 Pro Brown ,DE Classic; DE Collegiate; DE Pro
Reinders,Wisconsin,Appleton,WI,54913,800,Randolph Dr.,,www.reinders.com,Midwest,Mick Dennin,920-788-0200,MDENNIN@REINDERS.COM,www.reinders.com,Packaged Products,DPMC Premium; DPMC Pro; Black Stick,ProLoc Mound Blocks,6x30 Pro Red; 6x30 Pro Brown ,6x30 Pro Red; 6x30 Pro Brown ,DE Classic; DE Collegiate; DE Pro
Reinders,Wisconsin,Kenosha,WI,53101,8441,197th Ave,,www.reinders.com,Midwest,Dan Navin,262-857-3306,DNAVIN@REINDERS.COM,www.reinders.com,Packaged Products,DPMC Premium; DPMC Pro; Black Stick,ProLoc Mound Blocks,6x30 Pro Red; 6x30 Pro Brown ,6x30 Pro Red; 6x30 Pro Brown ,DE Classic; DE Collegiate; DE Pro
Reinders,Wisconsin,Madison,WI,53714,4217,Nakoosa Trail,,www.reinders.com,Midwest,Ben Olds,608-244-0200,BOLDS@REINDERS.COM,www.reinders.com,Packaged Products,DPMC Premium; DPMC Pro; Black Stick,ProLoc Mound Blocks,6x30 Pro Red; 6x30 Pro Brown ,6x30 Pro Red; 6x30 Pro Brown ,DE Classic; DE Collegiate; DE Pro
Reinders,Wisconsin,Stevens Point,WI,54467,3510,Post Rd.,,www.reinders.com,Midwest,Kris Pinkerton,715-342-3600,kpinkerton@reinders.com,www.reinders.com,Packaged Products,DPMC Premium; DPMC Pro; Black Stick,ProLoc Mound Blocks,6x30 Pro Red; 6x30 Pro Brown ,6x30 Pro Red; 6x30 Pro Brown ,DE Classic; DE Collegiate; DE Pro
Reinders,Wisconsin,Waukesha,WI,53188,2343,Pewaukee Rd.,,www.reinders.com,Midwest,Adam Urbanski,262-524-0200,aurbanski@reinders.com,www.reinders.com,Packaged Products,DPMC Premium; DPMC Pro; Black Stick,ProLoc Mound Blocks,6x30 Pro Red; 6x30 Pro Brown ,6x30 Pro Red; 6x30 Pro Brown ,DE Classic; DE Collegiate; DE Pro
Reinders,Wisconsin,Hudson,WI,54016,588,Schommer Dr. B,,www.reinders.com,Midwest,Ryan Grajkowski,715-690-2343,rgrajkowski@reinders.com,www.reinders.com,Packaged Products,DPMC Premium; DPMC Pro; Black Stick,ProLoc Mound Blocks,6x30 Pro Red; 6x30 Pro Brown ,6x30 Pro Red; 6x30 Pro Brown ,DE Classic; DE Collegiate; DE Pro
Reinders,Illinois,Buffalo Grove,IL,60089,111,Lexington Dr.,,www.reinders.com,Midwest,Kris Willing,847-573-0300,KWILLING@REINDERS.COM,www.reinders.com,Packaged Products,DPMC Premium; DPMC Pro; Black Stick,ProLoc Mound Blocks,6x30 Pro Red; 6x30 Pro Brown ,6x30 Pro Red; 6x30 Pro Brown ,DE Classic; DE Collegiate; DE Pro
Reinders,Kansas,Olathe,KS,66062,19942,W. 162nd St. D,,www.reinders.com,Midwest,Curt Mays,913-397-0080,,www.reinders.com,Packaged Products,DPMC Premium; DPMC Pro; Black Stick,ProLoc Mound Blocks,6x30 Pro Red; 6x30 Pro Brown ,6x30 Pro Red; 6x30 Pro Brown ,DE Classic; DE Collegiate; DE Pro
Target Specialty Products,Michigan,Wixom,MI,48377,29380,Beck Rd.,,www.target-specialty.com,Midwest,Brett Roberts,947-465-9650,brett.roberts@target-specialty.com,www.target-specialty.com,Packaged Products,DPMC Premium; DPMC Pro; Black Stick,ProLoc Mound Blocks,6x30 Pro Red; 6x30 Pro Brown ,6x30 Pro Red; 6x30 Pro Brown ,DE Classic; DE Collegiate; DE Pro
Agriland FS,Western Iowa,Indianola,IA,50125,2616, W 2nd Ave,,www.agrilandfs.com,Midwest,Curtis Myers,515-961-8408,cmyers@agrilandfs.com,https://agrilandfs.com/locations/,Packaged Products,DPMC Premium; DPMC Pro; Black Stick,ProLoc Mound Blocks,6x30 Pro Red; 6x30 Pro Brown ,6x30 Pro Red; 6x30 Pro Brown ,DE Classic; DE Collegiate; DE Pro
Agriland FS,Omaha Area,Underwood,NE,51576,701,Railroad Hwy St.,,www.agrilandfs.com,Midwest,Steve Watson,402-707-2863,swatson@agrilandfs.com,https://agrilandfs.com/locations/,Packaged Products,DPMC Premium; DPMC Pro; Black Stick,ProLoc Mound Blocks,6x30 Pro Red; 6x30 Pro Brown ,6x30 Pro Red; 6x30 Pro Brown ,DE Classic; DE Collegiate; DE Pro
Big Country Seeds,Eastern Iowa,Tiffin,IA,52340,1050,Greenfield Dr.,,www.bigcountryseeds.com,Midwest,Brian Heinricy,319-929-8025,brian@bigcountyrseeds.com,https://www.bigcountryseeds.com/locations,Packaged Products,DPMC Premium; DPMC Pro; Black Stick,ProLoc Mound Blocks,6x30 Pro Red; 6x30 Pro Brown ,6x30 Pro Red; 6x30 Pro Brown ,DE Classic; DE Collegiate; DE Pro
D&K Products,Quad Cities,Bettendorf,IA,52722,1210,44th St.,,www.dkturf.com,Midwest,Matt Nielsen,563-823-1842,mattn@dkturf.com,www.dkturf.com,Packaged Products,DPMC Premium; DPMC Pro; Black Stick,ProLoc Mound Blocks,6x30 Pro Red; 6x30 Pro Brown ,6x30 Pro Red; 6x30 Pro Brown ,DE Classic; DE Collegiate; DE Pro
D&K Products,Des Moines Area,Des Moines,IA,50313,1672,NE 54th Ave,,www.dkturf.com,Midwest,Ross Huff,800-798-9352,rossh@dkturf.com,www.dkturf.com,Packaged Products,DPMC Premium; DPMC Pro; Black Stick,ProLoc Mound Blocks,6x30 Pro Red; 6x30 Pro Brown ,6x30 Pro Red; 6x30 Pro Brown ,DE Classic; DE Collegiate; DE Pro
D&K Products,Omaha Area,LaVista,NE,68128,11937,Portal Rd.,Suite 113,www.dkturf.com,Midwest,Tony Vacarro,402-515-8302,tonyv@dkturf.com,www.dkturf.com,Packaged Products,DPMC Premium; DPMC Pro; Black Stick,ProLoc Mound Blocks,6x30 Pro Red; 6x30 Pro Brown ,6x30 Pro Red; 6x30 Pro Brown ,DE Classic; DE Collegiate; DE Pro
Gerten's,Minnesota,Egan,MN,55076,5500,Blaine Ave E,,www.gertens.com,Midwest,Matt Krey,651-319-3604,mkrey@gertens.com,www.gertens.com,Packaged Products,DPMC Premium; DPMC Pro; Black Stick,ProLoc Mound Blocks,6x30 Pro Red; 6x30 Pro Brown ,6x30 Pro Red; 6x30 Pro Brown ,DE Classic; DE Collegiate; DE Pro
Reinders,Minnesota,Minneapolis,MN,55447,2722,Fernbrook Ln. N,,www.reinders.com,Midwest,Chad Nowak,763-503-0200,cnovak@reinders.com,www.reinders.com,Packaged Products,DPMC Premium; DPMC Pro; Black Stick,ProLoc Mound Blocks,6x30 Pro Red; 6x30 Pro Brown ,6x30 Pro Red; 6x30 Pro Brown ,DE Classic; DE Collegiate; DE Pro
Reinders,Minnesota,Rochester,MN,55901,4165,US-14,Suite 100,www.reinders.com,Midwest,Tim Rainey,507-292-0677,trainey@reinders.com,www.reinders.com,Packaged Products,DPMC Premium; DPMC Pro; Black Stick,ProLoc Mound Blocks,6x30 Pro Red; 6x30 Pro Brown ,6x30 Pro Red; 6x30 Pro Brown ,DE Classic; DE Collegiate; DE Pro
Reinders,Missouri,Kansas City,MO,66062,19942,W. 162nd St. D,,www.reinders.com,Midwest,Cody Prather,952-529-2493,cprahter@reinders.com,www.reinders.com,Packaged Products,DPMC Premium; DPMC Pro; Black Stick,ProLoc Mound Blocks,6x30 Pro Red; 6x30 Pro Brown ,6x30 Pro Red; 6x30 Pro Brown ,DE Classic; DE Collegiate; DE Pro
HLS Outdoor,Minnesota,Brooklyn,MN,55428,9300,75th Ave N ,,www.hlsoutdoor,Midwest,Nick Balistrieri,651-279-5874,nick.balistrieri@hlsoutdoor,www.hlsoutdoor.com,Packaged Products,DPMC Premium; DPMC Pro; Black Stick,ProLoc Mound Blocks,6x30 Pro Red; 6x30 Pro Brown ,6x30 Pro Red; 6x30 Pro Brown ,DE Classic; DE Collegiate; DE Pro
HLS Outdoor,Minnesota,Egan,MN,55122,2015,Silver Bell Rd.,Suite 110,www.hlsoutdoor,Midwest,Nick Balistrieri,651-279-5874,nick.balistrieri@hlsoutdoor,www.hlsoutdoor.com,Packaged Products,DPMC Premium; DPMC Pro; Black Stick,ProLoc Mound Blocks,6x30 Pro Red; 6x30 Pro Brown ,6x30 Pro Red; 6x30 Pro Brown ,DE Classic; DE Collegiate; DE Pro
Game One Logistics,Ohio,Pleasant Hill,OH,45359,1484,Rangeline Rd.,,www.gameonlogistic.com,Midwest,Bryce Adams,937 -479-3960,gameonlogistics@gmail.com,www.gameonlogistic.com,Packaged Products,DPMC Premium; DPMC Pro; Black Stick,ProLoc Mound Blocks,6x30 Pro Red; 6x30 Pro Brown ,6x30 Pro Red; 6x30 Pro Brown ,DE Classic; DE Collegiate; DE Pro
Site One Maryland Hts. #25,Missouri,Maryland Hts.,MO,63146,2135,Schuetz Rd.,,www.siteone.com,Midwest,Nick LaPlante,314-991-3535,,www.siteone.com,Packaged Products,DPMC Premium; Black Stick,ProLoc Mound Blocks,6x30 Pro Red; 6x30 Pro Brown ,6x30 Pro Red; 6x30 Pro Brown ,DE Classic; DE Pro
Athletic Depot USA,Northern Georgia,Lulu,GA,30554,101,Pearl Industrial Ave e,,www.athleticdepotusa.com,Southeast,Jason Tindell,877-499-7015,jason@athleticdepotuse.com,www.athleticdepotusa.com,Packaged Products,DPMC Premium; DPMC Pro; Black Stick,ProLoc Mound Blocks,6x30 Pro Red; 6x30 Pro Brown ,6x30 Pro Red; 6x30 Pro Brown ,DE Classic; DE Collegiate; DE Pro
Ewing Irrigation & Landscape Branch #108,Louisiana,Baton Rouge,LA,70809,11638,Cloverland Ave,,www.ewingirrigation.com,Southeast,Jesse Kirvin,225-753-7530,branch108@ewingirrigation.com,www.ewingirrigation.com,Packaged Products,Black Stick,,,,
Ewing Irrigation & Landscape Branch #109,Mississippi,Ridgeland,MS,39157,112,E Marketridge Rd.,,www.ewingirrigation.com,Southeast,Jason Rogers,601-991-3185,branch109@ewingirrigation.com,www.ewingirrigation.com,Packaged Products,,,6x30 Pro Brown ,6x30 Pro Brown ,
Ewing Irrigation & Landscape Branch #109,Louisana,Shreveport,LA,71106,234,Lynbrook Blvd,,www.ewingirrigation.com,Southeast,Brett Clifton,318-671-5161,branch165@ewingirrigation.com,www.ewingirrigation.com,Packaged Products,,,,,DE Pro
Ewing Irrigation & Landscape Branch #115,Atlanta,Alpharetta,GA,30004,4080,Nine McFarland Dr.,,www.ewingirrigation.com,Southeast,Jeremy Bohonko,980-254-5100,jbohonko@ewingirrigation.com,https://www.ewingirrigation.com/locations,Packaged Products,,,,,
Ewing Irrigation & Landscape Branch #135,Alabama,Montgomery,AL,36117,5890,Monticello Dr.,,www.ewingirrigation.com,Southeast,Heather Corwin,334-396-8202,branch132@ewingirrigation.com,https://www.ewingirrigation.com/locations,Packaged Products,Black Stick,,,,
Ewing Irrigation & Landscape Branch #148,Alabama,Birmingham,AL,35235,5480,Vann Pl.,,www.ewingirrigation.com,Southeast,Jeremy Bohonko,980-254-5100,jbohonko@ewingirrigation.com,https://www.ewingirrigation.com/locations,Packaged Products,Black Stick,,,,
Ewing Irrigation & Landscape Branch #150,Tennessee,Nashville,TN,37210,118,Park S Ct.,,www.ewingirrigation.com,Southeast,Jonathan Ayers,615-244-8870,branch150@ewingirrigation.com,https://www.ewingirrigation.com/locations,Packaged Products,Black Stick,,,,
Ewing Irrigation & Landscape Branch #183,South Carolina,Columbia,SC,29203,101,Sunbelt Blvd,,www.ewingirrigation.com,Southeast,Jeremy Bohonko,980-254-5100,jbohonko@ewingirrigation.com,https://www.ewingirrigation.com/locations,Packaged Products,DPMC Premium; Black Stick,ProLoc Mound Blocks,6x30 Pro Red,6x30 Pro Red,
Ewing Irrigation & Landscape Branch #189,Central Florida,Sanford,FL,32771,300,Hickman Dr,,www.ewingirrigation.com,Southeast,Kevin Scott,407-462-8095,kscott@ewingirrigation.com,https://www.ewingirrigation.com/locations,Packaged Products,DPMC Premium; DPMC Pro; Black Stick,ProLoc Mound Blocks,6x30 Pro Red; 6x30 Pro Brown ,6x30 Pro Red; 6x30 Pro Brown ,DE Classic; DE Collegiate; DE Pro
Ewing Irrigation & Landscape Branch #190,Central Florida,Kissimmee,FL,34744,1045,Garden St,,www.ewingirrigation.com,Southeast,Kevin Scott,407-462-8095,kscott@ewingirrigation.com,https://www.ewingirrigation.com/locations,Packaged Products,DPMC Premium; DPMC Pro; Black Stick,ProLoc Mound Blocks,6x30 Pro Red; 6x30 Pro Brown ,6x30 Pro Red; 6x30 Pro Brown ,DE Classic; DE Collegiate; DE Pro
Ewing Irrigation & Landscape Branch #196,North Carolina,Charlotte,NC,28269,6829,Statesville Rd,,www.ewingirrigation.com,Southeast,Jeremy Bohonko,980-254-5100,jbohonko@ewingirrigation.com,https://www.ewingirrigation.com/locations,Packaged Products,DPMC Premium; DPMC Pro; Black Stick,ProLoc Mound Blocks,6x30 Pro Red; 6x30 Pro Brown ,6x30 Pro Red; 6x30 Pro Brown ,DE Classic; DE Collegiate; DE Pro
Ewing Irrigation & Landscape Branch #197,North Carolina,Indian Trail,NC,28079,211,Post Office Dr,,www.ewingirrigation.com,Southeast,Jeremy Bohonko,980-254-5100,jbohonko@ewingirrigation.com,https://www.ewingirrigation.com/locations,Packaged Products,Black Stick,ProLoc Mound Blocks,6x30 Pro Red,6x30 Pro Red,
Ewing Irrigation & Landscape Branch #197,South Carolina,Charleston,SC,29418,7281,Pepperdam Dr,,www.ewingirrigation.com,Southeast,Jeremy Bohonko,980-254-5100,jbohonko@ewingirrigation.com,https://www.ewingirrigation.com/locations,Packaged Products,Black Stick,ProLoc Mound Blocks,6x30 Pro Red,6x30 Pro Red,
Ewing Irrigation & Landscape Branch #198,Central Florida,Orlando,FL,32805,3333,Old Winter Garden Rd,,www.ewingirrigation.com,Southeast,Kevin Scott,407-462-8095,kscott@ewingirrigation.com,https://www.ewingirrigation.com/locations,Packaged Products,DPMC Premium; DPMC Pro; Black Stick,ProLoc Mound Blocks,6x30 Pro Red; 6x30 Pro Brown ,6x30 Pro Red; 6x30 Pro Brown ,DE Classic; DE Collegiate; DE Pro
Ewing Irrigation & Landscape Branch #199,South Carolina,Greer,SC,29650,20,Concourse Way,,www.ewingirrigation.com,Southeast,Jeremy Bohonko,980-254-5100,jbohonko@ewingirrigation.com,https://www.ewingirrigation.com/locations,Packaged Products,DPMC Premium; Black Stick,,6x30 Pro Brown ,6x30 Pro Brown ,DE Pro
Ewing Irrigation & Landscape Branch #208,North Carolina,Castle Hayne,NC,28429,4805,Las Tortugas Dr,,www.ewingirrigation.com,Southeast,Jeremy Bohonko,980-254-5100,jbohonko@ewingirrigation.com,https://www.ewingirrigation.com/locations,Packaged Products,Black Stick,ProLoc Mound Blocks,6x30 Pro Brown ,6x30 Pro Brown ,DE Pro
Ewing Irrigation & Landscape Branch #69,North Carolina,Apex,NC,27523,1700,N Salem St,Suite A,www.ewingirrigation.com,Southeast,Jeremy Bohonko,980-254-5100,jbohonko@ewingirrigation.com,https://www.ewingirrigation.com/locations,Packaged Products,DPMC Premium; DPMC Pro; Black Stick,ProLoc Mound Blocks,,,DE Pro
Ewing Irrigation & Landscape Branch #70,North Carolina,Garner,NC,27529,3609,Jones Sausage Rd,,www.ewingirrigation.com,Southeast,Jeremy Bohonko,980-254-5100,jbohonko@ewingirrigation.com,https://www.ewingirrigation.com/locations,Packaged Products,DPMC Premium; Black Stick,ProLoc Mound Blocks,,,
Ewing Irrigation & Landscape Branch #91,West Central Florida,Clearwater,FL,33765,2040,Range Rd,,www.ewingirrigation.com,Southeast,Matt Phillippi,727-441-9530,mphillippi@ewing1.com.,www.ewingirrigation.com,Packaged Products,Black Stick,ProLoc Mound Blocks,6x30 Pro Red; 6x30 Pro Brown ,6x30 Pro Red; 6x30 Pro Brown ,
Ewing Irrigation & Landscape Branch #92,Western Florida,Sarasota,FL,34238,6235,McIntosh Rd,,www.ewingirrigation.com,Southeast,Kevin Scott,407-462-8095,kscott@ewingirrigation.com,https://www.ewingirrigation.com/locations,Packaged Products,DPMC Premium; Black Stick,,6x30 Pro Red; 6x30 Pro Brown ,6x30 Pro Red; 6x30 Pro Brown ,
Ewing Irrigation & Landscape Supply,Western Florida,Ft. Myers,FL,33912,8091,Supply Dr,,www.ewingirrigation.com,Southeast,Kevin Scott,407-462-8095,kscott@ewingirrigation.com,https://www.ewingirrigation.com/locations,Packaged Products,DPMC Premium; DPMC Pro; Black Stick,ProLoc Mound Blocks,6x30 Pro Red; 6x30 Pro Brown ,6x30 Pro Red; 6x30 Pro Brown ,DE Classic; DE Collegiate; DE Pro
Green-Resource,North Carloina,Charlotte,NC,28273,10404,Granite St,,www.green-resource.com,Southeast,Robert Herring ,336-215-5368,rherring@green-resource.com,www.greensourceinc.com,Packaged Products,DPMC Premium; DPMC Pro; Black Stick,ProLoc Mound Blocks,6x30 Pro Red; 6x30 Pro Brown ,6x30 Pro Red; 6x30 Pro Brown ,DE Classic; DE Collegiate; DE Pro
Green-Resource,North Carloina,Colfax,NC,27235,5204,Highgreen Ct,,www.green-resource.com,Southeast,Robert Herring ,336-215-5368,rherring@green-resource.com,www.greensourceinc.com,Packaged Products,DPMC Premium; DPMC Pro; Black Stick,ProLoc Mound Blocks,6x30 Pro Red; 6x30 Pro Brown ,6x30 Pro Red; 6x30 Pro Brown ,DE Classic; DE Collegiate; DE Pro
Green-Resource,North Carloina,Garner,NC,27529,1218,Management Way,,www.green-resource.com,Southeast,Robert Herring ,336-215-5368,rherring@green-resource.com,www.greensourceinc.com,Packaged Products,DPMC Premium; DPMC Pro; Black Stick,ProLoc Mound Blocks,6x30 Pro Red; 6x30 Pro Brown ,6x30 Pro Red; 6x30 Pro Brown ,DE Classic; DE Collegiate; DE Pro
Pro Grounds Products,Flordia,Miami,FL,33176,8834,SW 131st St,,www.progroundsproducts.com,Southeast,Todd Legassy,305-235-5101,pgp@progroundsproducts.com,www.progroundsproducts.com,Packaged Products,DPMC Premium; DPMC Pro; Black Stick,ProLoc Mound Blocks,6x30 Pro Red; 6x30 Pro Brown ,6x30 Pro Red; 6x30 Pro Brown ,
Southern Seeds,Eastern North Carolina,Raleigh,NC,27557,10680,E Finch AV,,www.southernseeds.com,Southeast,Chad Strickland,252-235-3111,chad@southernseedsinc.com,,Packaged Products,DPMC Premium; DPMC Pro; Black Stick,ProLoc Mound Blocks,6x30 Pro Red; 6x30 Pro Brown ,6x30 Pro Red; 6x30 Pro Brown ,DE Classic; DE Collegiate; DE Pro
Turfnology,Atlanta,Atlanta,GA,30677,67,Depot St,,www.turfnology.com,Southeast,Frank Lopes,706-206-6270,frankl@turfnology.com,www.turfnology.com,Packaged Products,DPMC Premium; DPMC Pro; Black Stick,ProLoc Mound Blocks,6x30 Pro Red; 6x30 Pro Brown ,6x30 Pro Red; 6x30 Pro Brown ,DE Classic; DE Collegiate; DE Pro
Ewing Irrigation & Landscape Branch #101,Southern Texas,Friendswood,TX,77546,4319,FM 2351 Friendswood,,www.ewingirrigation.com,Southwest,Jim Barbuto,602-284-8274,jbarbuto@ewingirrigation.com,https://www.ewingirrigation.com/locations,Packaged Products,DPMC Premium,ProLoc Mound Blocks,,,
Ewing Irrigation & Landscape Branch #128,South Texas,Katy,TX,77450,22403,Katy Frwy,,www.ewingirrigation.com,Southwest,Greg Stafford,281-392-8111,branch128@ewingirrigation.com,www.ewingirrigation.com,Packaged Products,DPMC Premium; Black Stick,ProLoc Mound Blocks,,,
Ewing Irrigation & Landscape Branch #146,South Texas,Corpus Christi,TX,78411,4141,Brett St,,www.ewingirrigation.com,Southwest,Lee Wehring,361-814-9530,branch146@ewingirrigation.com,www.ewingirrigation.com,Packaged Products,DPMC Premium,ProLoc Mound Blocks,,,
Ewing Irrigation & Landscape Branch #161,South Texas,San Marcos,TX,78666,118,Hays Street,Suite 101,www.ewingirrigation.com,Southwest,Jim Barbuto,602-284-8274,jbarbuto@ewingirrigation.com,www.ewingirrigation.com,Packaged Products,,,,,DE Pro
Ewing Irrigation & Landscape Branch #162,South texas,Cedar Park,TX,78613,1400,Cottonwood Creek Trl,,www.ewingirrigation.com,Southwest,Ronnie Kammberger,512-260-9990,branch162@ewingirrigation.com,www.ewingirrigation.com,Packaged Products,DPMC Premium; Black Stick,ProLoc Mound Blocks,,,
Ewing Irrigation & Landscape Branch #173,Texas,Brownsville,TX,78526,5180,N Expressway Brownsville,,www.ewingirrigation.com,Southwest,Jim Barbuto,602-284-8274,jbarbuto@ewingirrigation.com,https://www.ewingirrigation.com/locations,Packaged Products,,,6x30 Pro Brown ,6x30 Pro Brown ,
Ewing Irrigation & Landscape Branch #74,Arizona,Pheonix,AZ,85033,7920,W Thomas Rd,,www.ewingirrigation.com,Southwest,Jim Barbuto,602-284-8274,dpierski@ewingirrigation.com,https://www.ewingirrigation.com/locations,Packaged Products,DPMC Premium; DPMC Pro; Black Stick,ProLoc Mound Blocks,6x30 Pro Red; 6x30 Pro Brown ,6x30 Pro Red; 6x30 Pro Brown ,DE Classic; DE Collegiate; DE Pro
Ewing Irrigation & Landscape Branch #104,North Texas,Dallas,TX,75220,10525,Wire Way,,www.ewingirrigation.com,Southwest,Jim Barbuto,602-284-8274,jbarbuto@ewingirrigation.com,https://www.ewingirrigation.com/locations,Packaged Products,DPMC Premium; Black Stick,ProLoc Mound Blocks,,,
Ewing Irrigation & Landscape Branch #55,Southern Texas,San Antonio,TX,78249,5826,Hawk Springs ,Bldg 1,www.ewingirrigation.com,Southwest,Jim Barbuto,602-284-8274,jbarbuto@ewingirrigation.com,https://www.ewingirrigation.com/locations,Packaged Products,DPMC Premium; Black Stick,ProLoc Mound Blocks,,,DE Pro
Ewing Irrigation & Landscape Branch #60,WestTexas,El Paso,TX,79905,3630,Duranzo Ave,,www.ewingirrigation.com,Southwest,Jim Barbuto,602-284-8274,jbarbuto@ewingirrigation.com,https://www.ewingirrigation.com/locations,Packaged Products,,,6x30 Pro Brown ,6x30 Pro Brown ,
Ewing Irrigation & Landscape Branch #64,Oklahoma,Edmond,OK,73013,13831,N Lincoln Blvd,,www.ewingirrigation.com,Southwest,Jim Barbuto,602-284-8274,jbarbuto@ewingirrigation.com,https://www.ewingirrigation.com/locations,Packaged Products,Black Stick,,6x30 Pro Red ,6x30 Pro Red ,
Ewing Irrigation & Landscape Branch #84,North Texas,Fort Worth,TX,76133,7445,Hulen St,,www.ewingirrigation.com,Southwest,Casey Strachan,817-370-460,branch84@ewing irrigation.com,www.ewingirrigation.com,Packaged Products,DPMC Premium; Black Stick,ProLoc Mound Blocks,,,
Ewing Irrigation & Landscape Branch #90,South Texas,McAllen,TX,78501,1312,E Upas Ave,,www.ewingirrigation.com,Southwest,Jim Barbuto,602-284-8274,jbarbuto@ewingirrigation.com,https://www.ewingirrigation.com/locations,Packaged Products,DPMC Premium; Black Stick,,,,
Gails Flags,North Texas,Fort Worth,TX,76117,2821,Carson St,,www.gailsflags.com,Southwest,Dan Raulins,817-831-4505,dan@gailsflags.com,www.gailsflags.com,Packaged Products,DPMC Premium; DPMC Pro; Black Stick,ProLoc Mound Blocks,6x30 Pro Red; 6x30 Pro Brown ,6x30 Pro Red; 6x30 Pro Brown ,DE Classic; DE Collegiate; DE Pro
Simplot Partners,Arizona,Tempe,AZ,85281,2301,2405 W University Dr,,www.simplot.com,Southwest,Brad Bird,480-519-6012,brad.bird@simplot.com,www.simplot.com,Packaged Products,DPMC Premium; DPMC Pro; Black Stick,ProLoc Mound Blocks,6x30 Pro Red; 6x30 Pro Brown ,6x30 Pro Red; 6x30 Pro Brown ,DE Classic; DE Collegiate; DE Pro
Simplot Partners,Oklahoma,Oklahoma City,OK,73127,5201,Reno Ave Ste E,,www.simplot.com,Southwest,Ken Carlton,405-201-3180,ken.carlton@simplot.com,www.simplot.com,Packaged Products,DPMC Premium; DPMC Pro; Black Stick,ProLoc Mound Blocks,6x30 Pro Red; 6x30 Pro Brown ,6x30 Pro Red; 6x30 Pro Brown ,DE Classic; DE Collegiate; DE Pro
Texas Mult-Chem,South Texas,Kerrville,TX,78028,305,Mill Run ,,www.texasmultichem.com,Southwest,Blake Caraway,(800) 292-1214,blake@texasmultichem.com,www.texasmultichem.com,Packaged Products,DPMC Premium; DPMC Pro; Black Stick,ProLoc Mound Blocks,6x30 Pro Red; 6x30 Pro Brown ,6x30 Pro Red; 6x30 Pro Brown ,
Unlimited Sporrts Solutions,Nebraska,Waverly,NE,68462,14650,Woodstock Blvd,,www.unlimitedsportssolutions.com,Southwest,Mike Estlinbaum,979-240-1185,mike@unlimitedsporrtssolutions.com,www.unlimitedsportssolutions.com,Packaged Products,DPMC Premium; DPMC Pro; Black Stick,ProLoc Mound Blocks,6x30 Pro Red; 6x30 Pro Brown ,6x30 Pro Red; 6x30 Pro Brown ,DE Classic; DE Collegiate; DE Pro
CPS Distributors Inc,Colorado,Glenwood Springs,CO,81601,5311,Co Rd,154 Unit A,https://cpsdistributors.com/,West,Jim Mueller,JM: 720-318-5749 or LOC: 970-945-9362,muellerj@cpsdistributors.com,https://cpsdistributors.com/locations/,Packaged Products,DPMC Premium; DPMC Pro; Black Stick,ProLoc Mound Blocks,6x30 Pro Red; 6x30 Pro Brown ,6x30 Pro Red; 6x30 Pro Brown ,DE Classic; DE Collegiate; DE Pro
CPS Distributors Inc,Colorado,Colorado Springs,CO,80915,6020,Galley Rd,,https://cpsdistributors.com/,West,Jim Mueller,JM: 720-318-5749 or LOC: 719-574-2400,muellerj@cpsdistributors.com,https://cpsdistributors.com/locations/,Packaged Products,DPMC Premium; DPMC Pro; Black Stick,ProLoc Mound Blocks,6x30 Pro Red; 6x30 Pro Brown ,6x30 Pro Red; 6x30 Pro Brown ,DE Classic; DE Collegiate; DE Pro
CPS Distributors Inc,Colorado,Centennial,CO,80112,7250,S Frasier St,,https://cpsdistributors.com/,West,Jim Mueller,JM: 720-318-5749 or LOC: 720-870-9933 ,muellerj@cpsdistributors.com,https://cpsdistributors.com/locations/,Packaged Products,DPMC Premium; DPMC Pro; Black Stick,ProLoc Mound Blocks,6x30 Pro Red; 6x30 Pro Brown ,6x30 Pro Red; 6x30 Pro Brown ,DE Classic; DE Collegiate; DE Pro
CPS Distributors Inc,Colorado,Englewood,CO,80110,4501,S Navajo St,,https://cpsdistributors.com/,West,Jim Mueller,JM: 720-318-5749 or LOC: 303-730-7310,muellerj@cpsdistributors.com,https://cpsdistributors.com/locations/,Packaged Products,DPMC Premium; DPMC Pro; Black Stick,ProLoc Mound Blocks,6x30 Pro Red; 6x30 Pro Brown ,6x30 Pro Red; 6x30 Pro Brown ,DE Classic; DE Collegiate; DE Pro
CPS Distributors Inc,Colorado,Aurora,CO,80011,15556,E 17th Ave,,https://cpsdistributors.com/,West,Jim Mueller,JM: 720-318-5749 or LOC: 303-261-1360,muellerj@cpsdistributors.com,https://cpsdistributors.com/locations/,Packaged Products,DPMC Premium; DPMC Pro; Black Stick,ProLoc Mound Blocks,6x30 Pro Red; 6x30 Pro Brown ,6x30 Pro Red; 6x30 Pro Brown ,DE Classic; DE Collegiate; DE Pro
CPS Distributors Inc,Colorado,Lakewood,CO,80215,11494,W 8th Ave,,https://cpsdistributors.com/,West,Jim Mueller,JM: 720-318-5749 or LOC: 303-237-5042,muellerj@cpsdistributors.com,https://cpsdistributors.com/locations/,Packaged Products,DPMC Premium; DPMC Pro; Black Stick,ProLoc Mound Blocks,6x30 Pro Red; 6x30 Pro Brown ,6x30 Pro Red; 6x30 Pro Brown ,DE Classic; DE Collegiate; DE Pro
CPS Distributors Inc,Colorado,Arvada,CO,80002,5601,Gray St,Unit B,https://cpsdistributors.com/,West,Jim Mueller,JM: 720-318-5749 or LOC: 720-456-6703,muellerj@cpsdistributors.com,https://cpsdistributors.com/locations/,Packaged Products,DPMC Premium; DPMC Pro; Black Stick,ProLoc Mound Blocks,6x30 Pro Red; 6x30 Pro Brown ,6x30 Pro Red; 6x30 Pro Brown ,DE Classic; DE Collegiate; DE Pro
CPS Distributors Inc,Main Office,Westminster,CO,80234,1105,W 122nd Ave,,https://cpsdistributors.com/,West,Jim Mueller,JM: 720-318-5749 or LOC: 303-394-6040,muellerj@cpsdistributors.com,https://cpsdistributors.com/locations/,Packaged Products,DPMC Premium; DPMC Pro; Black Stick,ProLoc Mound Blocks,6x30 Pro Red; 6x30 Pro Brown ,6x30 Pro Red; 6x30 Pro Brown ,DE Classic; DE Collegiate; DE Pro
CPS Distributors Inc,Colorado,Boulder,CO,80301,5700,Valmont Rd,,https://cpsdistributors.com/,West,Jim Mueller,JM: 720-318-5749 or LOC: 303-442-7975,muellerj@cpsdistributors.com,https://cpsdistributors.com/locations/,Packaged Products,DPMC Premium; DPMC Pro; Black Stick,ProLoc Mound Blocks,6x30 Pro Red; 6x30 Pro Brown ,6x30 Pro Red; 6x30 Pro Brown ,DE Classic; DE Collegiate; DE Pro
CPS Distributors Inc,Colorado,Longmont,CO,80501,1841,Boston Ave,,https://cpsdistributors.com/,West,Jim Mueller,JM: 720-318-5749 or LOC: 303-651-9512,muellerj@cpsdistributors.com,https://cpsdistributors.com/locations/,Packaged Products,DPMC Premium; DPMC Pro; Black Stick,ProLoc Mound Blocks,6x30 Pro Red; 6x30 Pro Brown ,6x30 Pro Red; 6x30 Pro Brown ,DE Classic; DE Collegiate; DE Pro
CPS Distributors Inc,Colorado,Fort Collins,CO,80524,207,N Timberline Rd,,https://cpsdistributors.com/,West,Jim Mueller,720-318-5749,muellerj@cpsdistributors.com,https://cpsdistributors.com/locations/,Packaged Products,DPMC Premium; DPMC Pro; Black Stick,ProLoc Mound Blocks,6x30 Pro Red; 6x30 Pro Brown ,6x30 Pro Red; 6x30 Pro Brown ,DE Classic; DE Collegiate; DE Pro
CPS Distributors Inc,Colorado,South Denver,CO,80231,7660,E Jewell Ave,,https://cpsdistributors.com/,West,Jim Mueller,JM: 720-318-5749 or LOC: 720-640-2550,muellerj@cpsdistributors.com,https://cpsdistributors.com/locations/,Packaged Products,DPMC Premium; DPMC Pro; Black Stick,ProLoc Mound Blocks,6x30 Pro Red; 6x30 Pro Brown ,6x30 Pro Red; 6x30 Pro Brown ,DE Classic; DE Collegiate; DE Pro
CPS Distributors Inc,Colorado,North Colorado Springs,CO,80918,4710,Northpark Dr,Suite 110,https://cpsdistributors.com/,West,Jim Mueller,JM: 720-318-5749 or LOC: 719-283-7555,muellerj@cpsdistributors.com,https://cpsdistributors.com/locations/,Packaged Products,DPMC Premium; DPMC Pro; Black Stick,ProLoc Mound Blocks,6x30 Pro Red; 6x30 Pro Brown ,6x30 Pro Red; 6x30 Pro Brown ,DE Classic; DE Collegiate; DE Pro
CPS Distributors Inc,Wyoming,Cheyenne,WY,82001,1001`,Dunn Ave,,https://cpsdistributors.com/,West,Jim Mueller,JM: 720-318-5749 or LOC: 307-637-6040,muellerj@cpsdistributors.com,https://cpsdistributors.com/locations/,Packaged Products,DPMC Premium; DPMC Pro; Black Stick,ProLoc Mound Blocks,6x30 Pro Red; 6x30 Pro Brown ,6x30 Pro Red; 6x30 Pro Brown ,DE Classic; DE Collegiate; DE Pro
CPS Distributors Inc,Colorado,Grand Junction,CO,81501,240,North Ave,,https://cpsdistributors.com/,West,Jim Mueller,JM: 720-318-5749 or LOC: 970-241-8480,muellerj@cpsdistributors.com,https://cpsdistributors.com/locations/,Packaged Products,DPMC Premium; DPMC Pro; Black Stick,ProLoc Mound Blocks,6x30 Pro Red; 6x30 Pro Brown ,6x30 Pro Red; 6x30 Pro Brown ,DE Classic; DE Collegiate; DE Pro
Ewing Irrigation & Landscape Bracnh #03,Northern California,San Jose,CA,95112,1605,Old Bayshore Hwy,,www.ewingirrigation.com,West,Jim Barbuto,602-284-8274,jbarbuto@ewingirrigation.com,https://www.ewingirrigation.com/locations,Packaged Products,,,6x30 Pro Red; 6x30 Pro Brown ,6x30 Pro Red; 6x30 Pro Brown ,DE Collegiate
Ewing Irrigation & Landscape Bracnh #117,Southern California,San Louis Obispo,CA,93401,1175,Prospect St,,www.ewingirrigation.com,West,Jim Barbuto,602-284-8274,jbarbuto@ewingirrigation.com,https://www.ewingirrigation.com/locations,Packaged Products,DPMC Premium,ProLoc Mound Blocks,,,
Ewing Irrigation & Landscape Branch # 125,Southern California,Santa Clarita,CA,91355,27726,Avenue Hopkins,,www.ewingirrigation.com,West,Jim Barbuto,916-502-3287,jbarbuto@ewingirrigation.com,https://www.ewingirrigation.com/locations,Packaged Products,DPMC Premium,,,,
Ewing Irrigation & Landscape Branch #01,Northern California,San Leandro,CA,94577,24577,Polvorosa Ave,,www.ewingirrigation.com,West,Jim Barbuto,916-502-3287,jbarbuto@ewingirrigation.com,https://www.ewingirrigation.com/locations,Packaged Products,DPMC Premium,,,,
Ewing Irrigation & Landscape Branch #02,Northern California,Sacramento,CA,95811,345,Richards Blvd,,www.ewingirrigation.com,West,Jim Barbuto,916-502-3287,jbarbuto@ewingirrigation.com,https://www.ewingirrigation.com/locations,Packaged Products,DPMC Premium; Black Stick;,ProLoc Mound Blocks,,,
Ewing Irrigation & Landscape Branch #100,Las Vegas Area,Las Vegas,NV,89103,4705,S Valley View,,www.ewingirrigation.com,West,Jim Barbuto,602-245-8456,jbarbuto@ewingirrigation.com,https://www.ewingirrigation.com/locations,Packaged Products,DPMC Premium,ProLoc Mound Blocks,,,
Ewing Irrigation & Landscape Branch #11,Southern California,Chatsworth,CA,91311,21101,Superior St,,www.ewingirrigation.com,West,Edgar Lomeli,818-882-9530,branch11@ewingirrigation.com,www.ewingirrigation.com,Packaged Products,DPMC Premium,,,,
Ewing Irrigation & Landscape Branch #136,Washington,Tacoma,WA,98409,2901,S Tacoma Way,,www.ewingirrigation.com,West,Jim Barbuto,602-284-8274,jbarbuto@ewingirrigation.com,https://www.ewingirrigation.com/locations,Packaged Products,Black Stick,,,,DE Pro
Ewing Irrigation & Landscape Branch #139,Washington,Kirkland,WA,98033,815,8th St Kirkland,,www.ewingirrigation.com,West,Jim Barbuto,602-284-8274,jbarbuto@ewingirrigation.com,www.ewingirrigation.com,Packaged Products,DPMC Premium,ProLoc Mound Blocks,,,
Ewing Irrigation & Landscape Branch #14,Central California,Visalia,CA,93291,9443,W Goshen,,www.ewingirrigation.com,West,Walt Cubas,559-651-0282,jbarbuto@ewingirrigation.com,www.ewingirrigation.com,Packaged Products,DPMC Premium,ProLoc Mound Blocks,,,
Ewing Irrigation & Landscape Branch #140,Oregon,Tigard,OR,97223,10600,SW Cascade Ave,,www.ewingirrigation.com,West,Jim Barbuto,602-284-8274,jbarbuto@ewingirrigation.com,https://www.ewingirrigation.com/locations,Packaged Products,DPMC Premium; DPMC Pro; Black Stick,ProLoc Mound Blocks,6x30 Pro Red; 6x30 Pro Brown ,6x30 Pro Red; 6x30 Pro Brown ,DE Classic; DE Collegiate; DE Pro
Ewing Irrigation & Landscape Branch #143,Oregon,Salem,OR,97301,3475,Pipe Band Pl,,www.ewingirrigation.com,West,Jim Barbuto,602-284-8274,jbarbuto@ewingirrigation.com,https://www.ewingirrigation.com/locations,Packaged Products,DPMC Premium,,,,DE Classic; DE Collegiate
Ewing Irrigation & Landscape Branch #158,Northern California,Redding,CA,96003,3015,Crossroads Dr,,www.ewingirrigation.com,West,Brian Dixon,530-222-9530,branch158@ewingirrigation.com,www.ewingirrigation.com,Packaged Products,DPMC Premium,ProLoc Mound Blocks,,,
Ewing Irrigation & Landscape Branch #16,Southern California,Bakersfield,CA,93308,3201,Sillect Ave,,www.ewingirrigation.com,West,Tristian Martina,661-323-9530,branch16@ewingirrigation.com,www.ewingirrigation.com,Packaged Products,DPMC Premium,ProLoc Mound Blocks,,,
Ewing Irrigation & Landscape Branch #176,Washington,Seattle,WA,98108,751,S Michigan St,,www.ewingirrigation.com,West,Jim Barbuto,602-284-8274,jbarbuto@ewingirrigation.com,https://www.ewingirrigation.com/locations,Packaged Products,DPMC Premium; Black Stick,ProLoc Mound Blocks,,,DE Classic; DE Pro
Ewing Irrigation & Landscape Branch #181,Washington,Pasco,WA,99301,1625,E James St,,www.ewingirrigation.com,West,Jim Barbuto,602-284-8274,jbarbuto@ewingirrigation.com,https://www.ewingirrigation.com,Packaged Products,DPMC Premium,ProLoc Mound Blocks,6x30 Pro Red; 6x30 Pro Brown ,6x30 Pro Red; 6x30 Pro Brown ,DE Classic
Ewing Irrigation & Landscape Branch #21,Southern California,El Cajon,CA,92020,1923, John Towers,,www.ewingirrigation.com,West,Chris Gordan,619-562-3300,branch21@ewingirrigation.com,www.ewingirrigation.com,Packaged Products,DPMC Premium,ProLoc Mound Blocks,,,
Ewing Irrigation & Landscape Branch #28,Utah,Midvale,UT,84047,6849,S 300 W Midvale,,www.ewingirrigation.com,West,Brad Mecham,801-566-4446,jbarbuto@ewingirrigation.com,https://www.ewingirrigation.com/locations,Packaged Products,DPMC Premium; DPMC Pro; Black Stick,ProLoc Mound Blocks,6x30 Pro Red; 6x30 Pro Brown ,6x30 Pro Red; 6x30 Pro Brown ,DE Classic; DE Collegiate; DE Pro
Ewing Irrigation & Landscape Branch #34,Utah,Orem,UT,84057,712,N Blvd,,www.ewingirrigation.com,West,Dustin Quarnberg,801-222-0777,branch34@ewingirrigation.com,www.ewingirrigation.com,Packaged Products,DPMC Premium; DPMC Pro,,,,
Ewing Irrigation & Landscape Branch #40,Northern California,Hayward,CA,94544,30928,San Antonio,,www.ewingirrigation.com,West,Jim Barbuto,916-502-3287,jbarbuto@ewingirrigation.com,https://www.ewingirrigation.com/locations,Packaged Products,DPMC Premium; DPMC Pro; Black Stick,ProLoc Mound Blocks,6x30 Pro Red; 6x30 Pro Brown ,6x30 Pro Red; 6x30 Pro Brown ,DE Classic; DE Collegiate; DE Pro
Ewing Irrigation & Landscape Branch #41,Reno Area,Sparks,NV,89431,1643,Greg Ct,,www.ewingirrigation.com,West,Jim Barbuto,916-502-3287,jbarbuto@ewingirrigation.com,https://www.ewingirrigation.com/locations,Packaged Products,DPMC Premium,ProLoc Mound Blocks,,,
Ewing Irrigation & Landscape Branch #43,Central California,Clovis,CA,93611,1599,Menlo Ave,,www.ewingirrigation.com,West,Aaron Kelly,559-298-4440,branch16@ewingirrigation.com,www.ewingirrigation.com,Packaged Products,DPMC Premium,ProLoc Mound Blocks,,,
Ewing Irrigation & Landscape Branch #46,Southern California,Corona,CA,92879,3940,N McKinley St,,www.ewingirrigation.com,West,Jim Barbuto,602-284-8274,jbarbuto@ewingirrigation.com,https://www.ewingirrigation.com/locations,Packaged Products,DPMC Premium; DPMC Pro; Black Stick,ProLoc Mound Blocks,6x30 Pro Red; 6x30 Pro Brown ,6x30 Pro Red; 6x30 Pro Brown ,DE Classic; DE Collegiate; DE Pro
Ewing Irrigation & Landscape Branch #52,Southern California,Poway,CA,92064,12270,Oak Knoll Rd,,www.ewingirrigation.com,West,Jim Barbuto,602-284-8274,jbarbuto@ewingirrigation.com,https://www.ewingirrigation.com/locations,Packaged Products,,,,,
Ewing Irrigation & Landscape Branch #59,Utah,Lehi,UT,84043,305,S 850 East ,Unit 106B,www.ewingirrigation.com,West,Jim Barbuto,916-502-3287,jbarbuto@ewingirrigation.com,https://www.ewingirrigation.com/locations,Packaged Products,,,,,
Ewing Irrigation & Landscape Branch #79,Northern California,Chico,CA,95973,163,Commercial Ave,,www.ewingirrigation.com,West,Gary Wheeler,530-894-5900,branch79@ewingirrigation.com,www.ewingirrigation.com,Packaged Products,DPMC Premium,ProLoc Mound Blocks,,,
Netex Sports Netting,Western Canada,Delta,BC,V4K 0B4,7500,Ottawa St,#102,www.netexnetting.com,West,Kassandra Wilson,604-946-8679,netexnettingsales@gmail.com,www.netexneting.com,Packaged Products,DPMC Premium; DPMC Pro; Black Stick,ProLoc Mound Blocks,6x30 Pro Red; 6x30 Pro Brown ,6x30 Pro Red; 6x30 Pro Brown ,DE Classic; DE Collegiate; DE Pro
Northwest Turf Solutions,Washington,Moses Lake,WA,98837,1801,Road K Southeast,,www.desertgreenturf.com,West,Nathan Cox,509-750-1614,nathan@desertgreenturf.com,www.northwesturfsolutions.com,Packaged Products,DPMC Premium; DPMC Pro; Black Stick,ProLoc Mound Blocks,6x30 Pro Red; 6x30 Pro Brown ,6x30 Pro Red; 6x30 Pro Brown ,DE Classic; DE Collegiate; DE Pro
Simplot Partners,Southern California,Fullerton,CA,92831,2300,E Valencia Dr,,www.simplot.com,West,Paul Wizikowski,714-686-7493,paul.wizikowski@simplot.com,www.simplot.com,Packaged Products,DPMC Premium; DPMC Pro; Black Stick,ProLoc Mound Blocks,6x30 Pro Red; 6x30 Pro Brown ,6x30 Pro Red; 6x30 Pro Brown ,DE Classic; DE Collegiate; DE Pro
Simplot Partners,Southern California,San Siego,CA,92121,6160,Marindustry Dr,,www.simplot.com,West,Pat Reilly,541-279-1009,patrick.reilly@simplot.com,www.simplot.com,Packaged Products,DPMC Premium; DPMC Pro; Black Stick,ProLoc Mound Blocks,6x30 Pro Red; 6x30 Pro Brown ,6x30 Pro Red; 6x30 Pro Brown ,DE Classic; DE Collegiate; DE Pro
Simplot Partners,Idaho,Bosie,ID,83605,,,#101,www.simplot.com,West,Pat Sherer,208-850-0736,patrick.sherer@simplot.com,www.simplot.com,Packaged Products,DPMC Premium; DPMC Pro; Black Stick,ProLoc Mound Blocks,6x30 Pro Red; 6x30 Pro Brown ,6x30 Pro Red; 6x30 Pro Brown ,DE Classic; DE Collegiate; DE Pro
Simplot Partners,Pacific Northwest,Portland,OR,97220,11600,NE Marx St,,www.simplot.com,West,Sean Watts,503-319-9225,sean.watts@simplot.com,www.simplot.com,Packaged Products,DPMC Premium; DPMC Pro; Black Stick,ProLoc Mound Blocks,6x30 Pro Red; 6x30 Pro Brown ,6x30 Pro Red; 6x30 Pro Brown ,DE Classic; DE Collegiate; DE Pro
Simplot Partners,Pacific Northwest,Hubbard,OR,97032,2655,Pacific Hwy,,www.simplot.com,West,Sean Watts,503-319-9225,sean.watts@simplot.com,www.simplot.com,Packaged Products,DPMC Premium; DPMC Pro; Black Stick,ProLoc Mound Blocks,6x30 Pro Red; 6x30 Pro Brown ,6x30 Pro Red; 6x30 Pro Brown ,DE Classic; DE Collegiate; DE Pro
Simplot Partners,Pacific Northwest,Tacoma,WA,97220,1805,Smeed Pkwy,#101,www.simplot.com,West,Erik Boley,971-219-9959,erik.boley@simplot.com,www.simplot.com,Packaged Products,DPMC Premium; DPMC Pro; Black Stick,ProLoc Mound Blocks,6x30 Pro Red; 6x30 Pro Brown ,6x30 Pro Red; 6x30 Pro Brown ,DE Classic; DE Collegiate; DE Pro
Simplot Partners,Colorado,Denver,CO,80216,4195,Oneida St h,,www.simplot.com,West,Denton Kurtz,866-437-5727,denton.kurtz@simplot.com,www.simplot.com,Packaged Products,DPMC Premium; DPMC Pro; Black Stick,ProLoc Mound Blocks,6x30 Pro Red; 6x30 Pro Brown ,6x30 Pro Red; 6x30 Pro Brown ,DE Classic; DE Collegiate; DE Pro
Simplot Partners,Las Vegas Area,Las Vegas,NV,89118,3555,W Reno Ave,Suite K,www.simplot.com,West,Dominic Jiron,702-210-6815,dominic.jiron@simplot.com,www.simplot.com,Packaged Products,DPMC Premium; DPMC Pro; Black Stick,ProLoc Mound Blocks,6x30 Pro Red; 6x30 Pro Brown ,6x30 Pro Red; 6x30 Pro Brown ,DE Classic; DE Collegiate; DE Pro
TMT Enterprises,Northern California,San Jose,CA,95131,1996,Old Oakland Rd,,www.tmtenterprises.net/products.php,West,Matt Moore,408-432-9040,matt@tmtenterprises.net,www.tmtenterprises.com,Packaged Products,DPMC Premium; DPMC Pro,,6x30 Pro Red,6x30 Pro Red,
